{
  "type": "FeatureCollection",
  "features": [
    {
      "type": "Feature",
      "properties": {
        "norad_id": 35052,
        "name": "IRIDIUM 33 DEB",
        "group": "iridium-33-debris",
        "lat": -9.067574481340401,
        "lon": 14.797930564522115,
        "alt_km": 762.9353904879454,
        "timestamp": "2025-12-24T14:43:29.387145+00:00",
        "meta_object_name": "IRIDIUM 33 DEB",
        "meta_object_id": "1997-051NY",
        "meta_epoch": "2025-12-23T18:44:00.353760",
        "meta_mean_motion": 14.38504324,
        "meta_eccentricity": 0.00131737,
        "meta_inclination": 86.33,
        "meta_ra_of_asc_node": 15.7419,
        "meta_arg_of_pericenter": 54.1122,
        "meta_mean_anomaly": 306.1297,
        "meta_ephemeris_type": 0,
        "meta_classification_type": "U",
        "meta_norad_cat_id": 35052,
        "meta_element_set_no": 999,
        "meta_rev_at_epoch": 87434,
        "meta_bstar": 0.00016915934,
        "meta_mean_motion_dot": 5.37e-06,
        "meta_mean_motion_ddot": 0,
        "tle_line1": "1 35052U 97051NY  25357.78055965  .00000537  00000+0  16916-3 0  9994",
        "tle_line2": "2 35052  86.3300  15.7419 0013173  54.1122 306.1297 14.38504324874342"
      },
      "geometry": {
        "type": "Point",
        "coordinates": [
          14.797930564522115,
          -9.067574481340401
        ]
      }
    },
    {
      "type": "Feature",
      "properties": {
        "norad_id": 35080,
        "name": "IRIDIUM 33 DEB",
        "group": "iridium-33-debris",
        "lat": 63.474277607634754,
        "lon": 54.33475320713834,
        "alt_km": 589.2590756704867,
        "timestamp": "2025-12-24T14:43:29.387155+00:00",
        "meta_object_name": "IRIDIUM 33 DEB",
        "meta_object_id": "1997-051PF",
        "meta_epoch": "2025-12-24T03:08:07.207008",
        "meta_mean_motion": 14.87285767,
        "meta_eccentricity": 0.00582666,
        "meta_inclination": 86.2065,
        "meta_ra_of_asc_node": 46.9271,
        "meta_arg_of_pericenter": 140.2548,
        "meta_mean_anomaly": 220.2968,
        "meta_ephemeris_type": 0,
        "meta_classification_type": "U",
        "meta_norad_cat_id": 35080,
        "meta_element_set_no": 999,
        "meta_rev_at_epoch": 69857,
        "meta_bstar": 0.0059641205,
        "meta_mean_motion_dot": 0.00055854,
        "meta_mean_motion_ddot": 0,
        "tle_line1": "1 35080U 97051PF  25358.13063897  .00055854  00000+0  59641-2 0  9991",
        "tle_line2": "2 35080  86.2065  46.9271 0058266 140.2548 220.2968 14.87285767698574"
      },
      "geometry": {
        "type": "Point",
        "coordinates": [
          54.33475320713834,
          63.474277607634754
        ]
      }
    },
    {
      "type": "Feature",
      "properties": {
        "norad_id": 35297,
        "name": "IRIDIUM 33 DEB",
        "group": "iridium-33-debris",
        "lat": -3.6743382709649315,
        "lon": -122.07699948083958,
        "alt_km": 742.4080388243501,
        "timestamp": "2025-12-24T14:43:29.387166+00:00",
        "meta_object_name": "IRIDIUM 33 DEB",
        "meta_object_id": "1997-051PM",
        "meta_epoch": "2025-12-22T21:59:54.464640",
        "meta_mean_motion": 14.45198443,
        "meta_eccentricity": 0.0018277,
        "meta_inclination": 86.3852,
        "meta_ra_of_asc_node": 58.4147,
        "meta_arg_of_pericenter": 110.0569,
        "meta_mean_anomaly": 250.2602,
        "meta_ephemeris_type": 0,
        "meta_classification_type": "U",
        "meta_norad_cat_id": 35297,
        "meta_element_set_no": 999,
        "meta_rev_at_epoch": 70573,
        "meta_bstar": 0.00060275,
        "meta_mean_motion_dot": 2.134e-05,
        "meta_mean_motion_ddot": 0,
        "tle_line1": "1 35297U 97051PM  25356.91660260  .00002134  00000+0  60275-3 0  9991",
        "tle_line2": "2 35297  86.3852  58.4147 0018277 110.0569 250.2602 14.45198443705738"
      },
      "geometry": {
        "type": "Point",
        "coordinates": [
          -122.07699948083958,
          -3.6743382709649315
        ]
      }
    },
    {
      "type": "Feature",
      "properties": {
        "norad_id": 35299,
        "name": "IRIDIUM 33 DEB",
        "group": "iridium-33-debris",
        "lat": -67.26111287964825,
        "lon": 19.103821595809116,
        "alt_km": 790.658147420072,
        "timestamp": "2025-12-24T14:43:29.387176+00:00",
        "meta_object_name": "IRIDIUM 33 DEB",
        "meta_object_id": "1997-051PP",
        "meta_epoch": "2025-12-24T01:50:23.136288",
        "meta_mean_motion": 14.40915431,
        "meta_eccentricity": 0.00586169,
        "meta_inclination": 86.2874,
        "meta_ra_of_asc_node": 28.25,
        "meta_arg_of_pericenter": 66.2729,
        "meta_mean_anomaly": 323.5489,
        "meta_ephemeris_type": 0,
        "meta_classification_type": "U",
        "meta_norad_cat_id": 35299,
        "meta_element_set_no": 999,
        "meta_rev_at_epoch": 86494,
        "meta_bstar": 0.00082499337,
        "meta_mean_motion_dot": 2.72e-05,
        "meta_mean_motion_ddot": 0,
        "tle_line1": "1 35299U 97051PP  25358.07665667  .00002720  00000+0  82499-3 0  9991",
        "tle_line2": "2 35299  86.2874  28.2500 0058616  66.2729 323.5489 14.40915431864947"
      },
      "geometry": {
        "type": "Point",
        "coordinates": [
          19.103821595809116,
          -67.26111287964825
        ]
      }
    },
    {
      "type": "Feature",
      "properties": {
        "norad_id": 35480,
        "name": "IRIDIUM 33 DEB",
        "group": "iridium-33-debris",
        "lat": 52.57354565891857,
        "lon": 24.540975465581752,
        "alt_km": 710.4166598141946,
        "timestamp": "2025-12-24T14:43:29.387186+00:00",
        "meta_object_name": "IRIDIUM 33 DEB",
        "meta_object_id": "1997-051QA",
        "meta_epoch": "2025-12-23T11:58:47.175168",
        "meta_mean_motion": 14.49804524,
        "meta_eccentricity": 0.00162048,
        "meta_inclination": 86.3563,
        "meta_ra_of_asc_node": 20.2477,
        "meta_arg_of_pericenter": 73.1284,
        "meta_mean_anomaly": 287.1696,
        "meta_ephemeris_type": 0,
        "meta_classification_type": "U",
        "meta_norad_cat_id": 35480,
        "meta_element_set_no": 999,
        "meta_rev_at_epoch": 87187,
        "meta_bstar": 0.00052903824,
        "meta_mean_motion_dot": 2.063e-05,
        "meta_mean_motion_ddot": 0,
        "tle_line1": "1 35480U 97051QA  25357.49915712  .00002063  00000+0  52904-3 0  9995",
        "tle_line2": "2 35480  86.3563  20.2477 0016204  73.1284 287.1696 14.49804524871874"
      },
      "geometry": {
        "type": "Point",
        "coordinates": [
          24.540975465581752,
          52.57354565891857
        ]
      }
    },
    {
      "type": "Feature",
      "properties": {
        "norad_id": 35484,
        "name": "IRIDIUM 33 DEB",
        "group": "iridium-33-debris",
        "lat": 21.288214262222215,
        "lon": 165.76682088604485,
        "alt_km": 563.5461500732172,
        "timestamp": "2025-12-24T14:43:29.387196+00:00",
        "meta_object_name": "IRIDIUM 33 DEB",
        "meta_object_id": "1997-051QE",
        "meta_epoch": "2025-12-23T05:59:10.354560",
        "meta_mean_motion": 14.99264182,
        "meta_eccentricity": 0.00245796,
        "meta_inclination": 86.3609,
        "meta_ra_of_asc_node": 347.8264,
        "meta_arg_of_pericenter": 91.5392,
        "meta_mean_anomaly": 268.8655,
        "meta_ephemeris_type": 0,
        "meta_classification_type": "U",
        "meta_norad_cat_id": 35484,
        "meta_element_set_no": 999,
        "meta_rev_at_epoch": 62173,
        "meta_bstar": 0.0029536278,
        "meta_mean_motion_dot": 0.00036413,
        "meta_mean_motion_ddot": 0,
        "tle_line1": "1 35484U 97051QE  25357.24942540  .00036413  00000+0  29536-2 0  9991",
        "tle_line2": "2 35484  86.3609 347.8264 0024579  91.5392 268.8655 14.99264182621733"
      },
      "geometry": {
        "type": "Point",
        "coordinates": [
          165.76682088604485,
          21.288214262222215
        ]
      }
    },
    {
      "type": "Feature",
      "properties": {
        "norad_id": 35488,
        "name": "IRIDIUM 33 DEB",
        "group": "iridium-33-debris",
        "lat": -46.78072050870555,
        "lon": -68.51946622358585,
        "alt_km": 612.9184967042111,
        "timestamp": "2025-12-24T14:43:29.387207+00:00",
        "meta_object_name": "IRIDIUM 33 DEB",
        "meta_object_id": "1997-051QJ",
        "meta_epoch": "2025-12-22T19:13:13.565280",
        "meta_mean_motion": 14.8329676,
        "meta_eccentricity": 0.00284188,
        "meta_inclination": 86.3248,
        "meta_ra_of_asc_node": 296.2385,
        "meta_arg_of_pericenter": 9.7501,
        "meta_mean_anomaly": 350.4267,
        "meta_ephemeris_type": 0,
        "meta_classification_type": "U",
        "meta_norad_cat_id": 35488,
        "meta_element_set_no": 999,
        "meta_rev_at_epoch": 88415,
        "meta_bstar": 0.0016428334,
        "meta_mean_motion_dot": 0.00013576,
        "meta_mean_motion_ddot": 0,
        "tle_line1": "1 35488U 97051QJ  25356.80085145  .00013576  00000+0  16428-2 0  9996",
        "tle_line2": "2 35488  86.3248 296.2385 0028418   9.7501 350.4267 14.83296760884150"
      },
      "geometry": {
        "type": "Point",
        "coordinates": [
          -68.51946622358585,
          -46.78072050870555
        ]
      }
    }
  ]
}